GSAT0101 (GALILEO-PFM)  
1 37846U 11060A   24225.44878538 -.00000082  00000+0  00000+0 0  9997
2 37846  57.1293   0.0141 0001934  71.2892 288.7376  1.70475942 79634
GSAT0102 (GALILEO-FM2)  
1 37847U 11060B   24226.53174108 -.00000079  00000+0  00000+0 0  9997
2 37847  57.1302 359.9850 0001490 358.0694 352.1689  1.70475402 79658
GSAT0103 (GALILEO-FM3)  
1 38857U 12055A   24226.07476852 -.00000007  00000+0  00000+0 0  9995
2 38857  55.4287 120.0420 0003807 280.2466  79.7644  1.70473769 73538
GSAT0201 (GALILEO 5)    
1 40128U 14050A   24225.14254676 -.00000061  00000+0  00000+0 0  9991
2 40128  49.6013 300.8142 1612770 153.4522 215.8349  1.85519549 65813
GSAT0202 (GALILEO 6)    
1 40129U 14050B   24225.40063628 -.00000057  00000+0  00000+0 0  9991
2 40129  49.6177 299.8813 1611757 154.2600 214.7678  1.85520203 67989
GSAT0203 (GALILEO 7)    
1 40544U 15017A   24226.40109374 -.00000080  00000+0  00000+0 0  9992
2 40544  56.9232 359.9147 0002882 233.4081 126.5717  1.70476304 57738
GSAT0204 (GALILEO 8)    
1 40545U 15017B   24224.89567795 -.00000083  00000+0  00000+0 0  9992
2 40545  56.9303 359.9713 0003169 214.4991 145.4859  1.70475842 20750
GSAT0205 (GALILEO 9)    
1 40889U 15045A   24226.42355905  .00000080  00000+0  00000+0 0  9999
2 40889  55.1952 240.1875 0002969   6.5045 353.5461  1.70473629 55546
GSAT0206 (GALILEO 10)   
1 40890U 15045B   24224.88445168  .00000070  00000+0  00000+0 0  9999
2 40890  55.1943 240.2254 0001710 322.9949  37.0351  1.70473684 55544
GSAT0209 (GALILEO 12)   
1 41174U 15079A   24224.46778674 -.00000007  00000+0  00000+0 0  9998
2 41174  55.4471 119.7960 0003719 335.8723  24.1669  1.70473939 53277
GSAT0208 (GALILEO 11)   
1 41175U 15079B   24225.27416351 -.00000007  00000+0  00000+0 0  9990
2 41175  55.4456 119.7716 0003105 340.3920  19.6514  1.70473783 53702
GSAT0211 (GALILEO 14)   
1 41549U 16030A   24221.29063258  .00000049  00000+0  00000+0 0  9990
2 41549  55.3440 240.3417 0003460 309.0809  50.9279  1.70473819 51119
GSAT0207 (GALILEO 15)   
1 41859U 16069A   24225.34799050 -.00000007  00000+0  00000+0 0  9997
2 41859  55.1112 119.7595 0003130 329.6183  30.4186  1.70473913 47918
GSAT0212 (GALILEO 16)   
1 41860U 16069B   24222.26926860 -.00000009  00000+0  00000+0 0  9990
2 41860  55.1087 119.8412 0003070 350.2726   9.7793  1.70474076 48113
GSAT0213 (GALILEO 17)   
1 41861U 16069C   24226.15728824 -.00000007  00000+0  00000+0 0  9991
2 41861  55.1121 119.7404 0003281 296.3003  63.7201  1.70474426 48040
GSAT0214 (GALILEO 18)   
1 41862U 16069D   24225.71594369 -.00000007  00000+0  00000+0 0  9998
2 41862  55.1112 119.7458 0002281 303.8615  56.1713  1.70473957 48167
GSAT0215 (GALILEO 19)   
1 43055U 17079A   24226.20529901  .00000079  00000+0  00000+0 0  9999
2 43055  55.3193 240.0274 0003573 262.1067  97.8986  1.70474355 41510
GSAT0216 (GALILEO 20)   
1 43056U 17079B   24225.32378577  .00000074  00000+0  00000+0 0  9998
2 43056  55.3204 240.0516 0004950 271.8195  88.1668  1.70474524 41486
GSAT0217 (GALILEO 21)   
1 43057U 17079C   24224.37110447  .00000067  00000+0  00000+0 0  9995
2 43057  55.3184 240.0764 0004180 282.0726  77.9206  1.70474479 41481
GSAT0218 (GALILEO 22)   
1 43058U 17079D   24225.76433603  .00000076  00000+0  00000+0 0  9992
2 43058  55.3182 240.0356 0005444 268.8289  91.1531  1.70474417 41534
GSAT0221 (GALILEO 25)   
1 43564U 18060A   24226.25197055 -.00000080  00000+0  00000+0 0  9994
2 43564  57.3041 359.9337 0002633 262.2466  97.7296  1.70476188 37692
GSAT0222 (GALILEO 26)   
1 43565U 18060B   24225.88399248 -.00000080  00000+0  00000+0 0  9991
2 43565  57.3082 359.9455 0003104 216.3637 143.6213  1.70475918 37738
GSAT0219 (GALILEO 23)   
1 43566U 18060C   24224.34602887 -.00000085  00000+0  00000+0 0  9993
2 43566  57.3071 359.9886 0001615 270.2152  89.7708  1.70476250 37684
GSAT0220 (GALILEO 24)   
1 43567U 18060D   24225.15326705 -.00000082  00000+0  00000+0 0  9993
2 43567  57.3068 359.9677 0001935 261.2027  98.7809  1.70476142 37687
GSAT0223 (GALILEO 27)   
1 49809U 21116A   24226.17920847 -.00000080  00000+0  00000+0 0  9992
2 49809  57.2981 359.8341 0002987 179.9603 180.1332  1.70476290 16706
GSAT0224 (GALILEO 28)   
1 49810U 21116B   24226.57618663 -.00000079  00000+0  00000+0 0  9996
2 49810  57.2982 359.8218 0002505 167.3550 188.8865  1.70476308 16739
GSAT0225 (GALILEO 29)   
1 59598U 24079A   24226.30148206 -.00000008  00000+0  00000+0 0  9995
2 59598  54.7286 119.9127 0001436 202.9001 335.4825  1.70474237  1846
GSAT0227 (GALILEO 30)   
1 59600U 24079C   24226.19420019 -.00000008  00000+0  00000+0 0  9991
2 59600  54.7240 119.9158 0001842  98.8804 261.1939  1.70474165  1894
